NORAD_CAT_ID,OBJECT_NAME,OBJECT_TYPE,EPOCH,MEAN_MOTION,ECCENTRICITY,INCLINATION,RA_OF_ASC_NODE,ARG_OF_PERICENTER,MEAN_ANOMALY,BSTAR,MEAN_MOTION_DOT,MEAN_MOTION_DDOT,TLE_LINE0,TLE_LINE1,TLE_LINE2,SEMIMAJOR_AXIS,PERIOD,APOGEE,PERIGEE,DECAYED
55434.0,STARLINK-5621,PAYLOAD,2024-02-28 11:48:12,14.98326655,0.0002723,70.0019,170.7824,239.0552,121.034,3.7862e-05,3.59e-06,0.0,0 STARLINK-5621,1 55434U 23014AV  24059.49181365  .00000359  00000-0  37862-4 0  9995,2 55434  70.0019 170.7824 0002723 239.0552 121.0340 14.98326655 59250,6950.203,96.107,573.961,570.176,0.0
55434.0,STARLINK-5621,PAYLOAD,2024-02-28 13:24:20,14.98325262,0.0002744,70.0001,170.6113,249.9839,110.1024,-6.7757e-06,-1.74e-06,0.0,0 STARLINK-5621,1 55434U 23014AV  24059.55857510 -.00000174  00000-0 -67757-5 0  9998,2 55434  70.0001 170.6113 0002744 249.9839 110.1024 14.98325262 60200,6950.208,96.107,573.98,570.165,0.0
55434.0,STARLINK-5621,PAYLOAD,2024-02-28 18:12:44,14.98328444,0.0002896,70.0004,170.1071,258.7583,101.325,3.0514e-05,2.71e-06,0.0,0 STARLINK-5621,1 55434U 23014AV  24059.75885315  .00000271  00000-0  30514-4 0  9990,2 55434  70.0004 170.1071 0002896 258.7583 101.3250 14.98328444 60234,6950.198,96.107,574.075,570.05,0.0
55434.0,STARLINK-5621,PAYLOAD,2024-02-29 11:50:13,14.98338387,0.0002929,70.0003,168.2545,256.001,104.0824,-2.7493e-05,-4.21e-06,0.0,0 STARLINK-5621,1 55434U 23014AV  24060.49320920 -.00000421  00000-0 -27493-4 0  9990,2 55434  70.0003 168.2545 0002929 256.0010 104.0824 14.98338387 59401,6950.167,96.106,574.068,569.996,0.0
55434.0,STARLINK-5621,PAYLOAD,2024-02-29 15:02:29,14.98335287,0.000318,70.0002,167.9193,264.4255,95.6542,5.9604e-05,6.18e-06,0.0,0 STARLINK-5621,1 55434U 23014AV  24060.62672875  .00000618  00000-0  59604-4 0  9999,2 55434  70.0002 167.9193 0003180 264.4255  95.6542 14.98335287 60364,6950.177,96.107,574.252,569.831,0.0
55434.0,STARLINK-5621,PAYLOAD,2024-02-29 16:38:37,14.98337114,0.0003231,70.0007,167.7529,269.7375,90.3414,7.2611e-05,7.74e-06,0.0,0 STARLINK-5621,1 55434U 23014AV  24060.69348738  .00000774  00000-0  72611-4 0  9990,2 55434  70.0007 167.7529 0003231 269.7375  90.3414 14.98337114 60370,6950.171,96.107,574.281,569.79,0.0
55434.0,STARLINK-5621,PAYLOAD,2024-03-01 11:52:14,14.98324033,0.0002998,70.0011,165.7327,267.4147,92.6669,2.0079e-05,1.47e-06,0.0,0 STARLINK-5621,1 55434U 23014AV  24061.49461782  .00000147  00000-0  20079-4 0  9999,2 55434  70.0011 165.7327 0002998 267.4147  92.6669 14.98324033 59551,6950.211,96.107,574.16,569.993,0.0
55434.0,STARLINK-5621,PAYLOAD,2024-03-01 13:28:22,14.98327414,0.0003029,70.0014,165.5661,268.6414,91.4398,4.284e-05,4.18e-06,0.0,0 STARLINK-5621,1 55434U 23014AV  24061.56137609  .00000418  00000-0  42840-4 0  9996,2 55434  70.0014 165.5661 0003029 268.6414  91.4398 14.98327414 60508,6950.201,96.107,574.171,569.961,0.0
55434.0,STARLINK-5621,PAYLOAD,2024-03-01 16:40:39,14.98325281,0.0002852,70.001,165.2272,260.4506,99.6331,5.4437e-05,5.57e-06,0.0,0 STARLINK-5621,1 55434U 23014AV  24061.69489643  .00000557  00000-0  54437-4 0  9997,2 55434  70.0010 165.2272 0002852 260.4506  99.6331 14.98325281 60523,6950.207,96.107,574.055,570.09,0.0
55434.0,STARLINK-5621,PAYLOAD,2024-03-02 11:54:14,14.98338234,0.0003104,70.0013,163.2092,264.8513,95.2291,7.3839e-05,7.88e-06,0.0,0 STARLINK-5621,1 55434U 23014AV  24062.49600656  .00000788  00000-0  73839-4 0  9998,2 55434  70.0013 163.2092 0003104 264.8513  95.2291 14.98338234 59708,6950.167,96.106,574.19,569.875,0.0
55434.0,STARLINK-5621,PAYLOAD,2024-03-02 13:30:22,14.98340555,0.0003001,70.0013,163.0405,257.5684,102.514,9.792e-05,1.076e-05,0.0,0 STARLINK-5621,1 55434U 23014AV  24062.56276360  .00001076  00000-0  97920-4 0  9995,2 55434  70.0013 163.0405 0003001 257.5684 102.5140 14.98340555 60658,6950.16,96.106,574.111,569.94,0.0
55434.0,STARLINK-5621,PAYLOAD,2024-03-02 16:42:38,14.98343061,0.0002618,70.002,162.7058,264.2933,95.7928,0.00012348,1.381e-05,0.0,0 STARLINK-5621,1 55434U 23014AV  24062.69628174  .00001381  00000-0  12348-3 0  9992,2 55434  70.0020 162.7058 0002618 264.2933  95.7928 14.98343061 60675,6950.153,96.106,573.837,570.198,0.0
55434.0,STARLINK-5621,PAYLOAD,2024-03-03 10:20:08,14.98328122,0.0003624,69.9994,160.8507,275.1513,84.9232,2.41e-05,1.94e-06,0.0,0 STARLINK-5621,1 55434U 23014AV  24063.43065092  .00000194  00000-0  24100-4 0  9990,2 55434  69.9994 160.8507 0003624 275.1513  84.9232 14.98328122 59849,6950.199,96.107,574.582,569.545,0.0
55434.0,STARLINK-5621,PAYLOAD,2024-03-03 13:32:24,14.98326527,0.0003451,70.0005,160.5154,275.0471,85.0294,5.4016e-06,-2.9e-07,0.0,0 STARLINK-5621,1 55434U 23014AV  24063.56417271 -.00000029  00000-0  54016-5 0  9992,2 55434  70.0005 160.5154 0003451 275.0471  85.0294 14.98326527 60805,6950.204,96.107,574.467,569.67,0.0
55434.0,STARLINK-5621,PAYLOAD,2024-03-03 16:44:40,14.98327527,0.0003544,70.0003,160.1789,274.1451,85.9302,2.9246e-05,2.56e-06,0.0,0 STARLINK-5621,1 55434U 23014AV  24063.69769143  .00000256  00000-0  29246-4 0  9991,2 55434  70.0003 160.1789 0003544 274.1451  85.9302 14.98327527 60826,6950.201,96.107,574.529,569.602,0.0
55434.0,STARLINK-5621,PAYLOAD,2024-03-04 11:58:16,14.983433,0.0002987,70.0008,158.1601,265.0197,95.0621,4.3505e-05,4.26e-06,0.0,0 STARLINK-5621,1 55434U 23014AV  24064.49879892  .00000426  00000-0  43505-4 0  9996,2 55434  70.0008 158.1601 0002987 265.0197  95.0621 14.98343300 60000,6950.152,96.106,574.093,569.941,0.0
55434.0,STARLINK-5621,PAYLOAD,2024-03-04 13:34:24,14.98345063,0.000324,70.0008,157.9916,273.7441,86.3347,9.0095e-05,9.83e-06,0.0,0 STARLINK-5621,1 55434U 23014AV  24064.56555619  .00000983  00000-0  90095-4 0  9996,2 55434  70.0008 157.9916 0003240 273.7441  86.3347 14.98345063 60957,6950.146,96.106,574.263,569.759,0.0
55434.0,STARLINK-5621,PAYLOAD,2024-03-04 15:10:31,14.98348795,0.0003211,70.0008,157.8235,274.6666,85.4126,0.00011196,1.244e-05,0.0,0 STARLINK-5621,1 55434U 23014AV  24064.63231278  .00001244  00000-0  11196-3 0  9991,2 55434  70.0008 157.8235 0003211 274.6666  85.4126 14.98348795 60968,6950.135,96.106,574.231,569.768,0.0
55434.0,STARLINK-5621,PAYLOAD,2024-03-05 13:36:27,14.98310087,0.0003075,70.0018,155.4671,269.1376,90.9431,-0.00020905,-2.585e-05,0.0,0 STARLINK-5621,1 55434U 23014AV  24065.56697921 -.00002585  00000-0 -20905-3 0  9994,2 55434  70.0018 155.4671 0003075 269.1376  90.9431 14.98310087 61102,6950.254,96.108,574.257,569.982,0.0
55434.0,STARLINK-5621,PAYLOAD,2024-03-05 15:12:35,14.98311495,0.0003072,70.0018,155.2988,268.8931,91.1876,-0.00016801,-2.096e-05,0.0,0 STARLINK-5621,1 55434U 23014AV  24065.63373950 -.00002096  00000-0 -16801-3 0  9992,2 55434  70.0018 155.2988 0003072 268.8931  91.1876 14.98311495 60177,6950.25,96.108,574.25,569.98,0.0
55434.0,STARLINK-5621,PAYLOAD,2024-03-06 02:25:31,14.98323321,0.0003195,70.0018,154.12,268.5707,91.5086,5.9434e-05,6.16e-06,0.0,0 STARLINK-5621,1 55434U 23014AV  24066.10105569  .00000616  00000-0  59434-4 0  9998,2 55434  70.0018 154.1200 0003195 268.5707  91.5086 14.98323321 60242,6950.214,96.107,574.299,569.858,0.0
55434.0,STARLINK-5621,PAYLOAD,2024-03-06 13:38:28,14.98338012,0.0003173,70.0018,152.9413,269.8103,90.2692,0.0014832,0.00017653,0.0,0 STARLINK-5621,1 55434U 23014AV  24066.56837980  .00017653  00000-0  14832-2 0  9997,2 55434  70.0018 152.9413 0003173 269.8103  90.2692 14.98338012 61258,6950.168,96.106,574.238,569.828,0.0
55434.0,STARLINK-5621,PAYLOAD,2024-03-06 15:14:36,14.98341332,0.0003188,70.0018,152.7729,269.989,90.0904,0.001527,0.0001818,0.0,0 STARLINK-5621,1 55434U 23014AV  24066.63513926  .00018180  00000-0  15270-2 0  9999,2 55434  70.0018 152.7729 0003188 269.9890  90.0904 14.98341332 60326,6950.158,96.106,574.239,569.807,0.0
55434.0,STARLINK-5621,PAYLOAD,2024-03-06 23:15:16,14.98331914,0.0002428,70.0038,151.9307,264.5582,95.53,0.00063453,7.486e-05,0.0,0 STARLINK-5621,1 55434U 23014AV  24066.96894212  .00007486  00000-0  63453-3 0  9999,2 55434  70.0038 151.9307 0002428 264.5582  95.5300 14.98331914 60376,6950.187,96.107,573.739,570.364,0.0
55434.0,STARLINK-5621,PAYLOAD,2024-03-07 13:40:28,14.98337724,0.0003103,70.0023,150.4164,267.5849,92.4955,0.00052242,6.147e-05,0.0,0 STARLINK-5621,1 55434U 23014AV  24067.56977863  .00006147  00000-0  52242-3 0  9997,2 55434  70.0023 150.4164 0003103 267.5849  92.4955 14.98337724 61407,6950.169,96.107,574.191,569.877,0.0
55434.0,STARLINK-5621,PAYLOAD,2024-03-08 12:06:20,14.98353659,0.0003149,70.0022,148.0605,269.0127,91.0671,0.00064264,7.588e-05,0.0,0 STARLINK-5621,1 55434U 23014AV  24068.50440791  .00007588  00000-0  64264-3 0  9994,2 55434  70.0022 148.0605 0003149 269.0127  91.0671 14.98353659 60601,6950.12,96.105,574.173,569.796,0.0
55434.0,STARLINK-5621,PAYLOAD,2024-03-09 04:07:41,14.98343376,0.0002966,70.0027,146.3776,269.6813,90.4006,0.00013223,1.486e-05,0.0,0 STARLINK-5621,1 55434U 23014AV  24069.17200596  .00001486  00000-0  13223-3 0  9995,2 55434  70.0027 146.3776 0002966 269.6813  90.4006 14.98343376 60701,6950.152,96.106,574.078,569.955,0.0
55434.0,STARLINK-5621,PAYLOAD,2024-03-09 12:08:21,14.98338591,0.0003226,70.0019,145.5365,266.05,94.029,6.1517e-05,6.41e-06,0.0,0 STARLINK-5621,1 55434U 23014AV  24069.50580607  .00000641  00000-0  61517-4 0  9998,2 55434  70.0019 145.5365 0003226 266.0500  94.0290 14.98338591 61698,6950.166,96.106,574.273,569.789,0.0
55434.0,STARLINK-5621,PAYLOAD,2024-03-10 04:09:42,14.98337283,0.0003081,70.0018,143.8538,262.8751,97.2058,1.6875e-05,1.08e-06,0.0,0 STARLINK-5621,1 55434U 23014AV  24070.17340430  .00000108  00000-0  16875-4 0  9996,2 55434  70.0018 143.8538 0003081 262.8751  97.2058 14.98337283 60852,6950.17,96.107,574.177,569.894,0.0
55434.0,STARLINK-5621,PAYLOAD,2024-03-10 12:10:22,14.98335912,0.0002884,70.002,143.0123,259.7836,100.2997,1.3955e-05,7.4e-07,0.0,0 STARLINK-5621,1 55434U 23014AV  24070.50720505  .00000074  00000-0  13955-4 0  9996,2 55434  70.0020 143.0123 0002884 259.7836 100.2997 14.98335912 61840,6950.175,96.107,574.044,570.035,0.0
